#dP2021  7 26  0  0  0.00000000     289 ORBIT IGS14 BHN ESOC                    
## 2168  86400.00000000   300.00000000 59421 0.0000000000000                    
+  116   G13G28G21G22G07G05G20G31G17G15G16G29G12G19G02G25G01                    
+        G30G24G27G06G09G03G32G26G08G10G04G18G23G14G11R09R11                    
+        R20R19R13R01R22R16R08R03R07R02R17R18R21R05R15R12R04                    
+        R24E11E12E19E18E14E26E24E30E08E09E01E02E07E03E04E05                    
+        E21E25E27E31E36E13E15E33C11C12C14C19C20C27C28C22C21                    
+        C29C30C23C24C26C25C32C33C35C34C36C37C46C45C44C43C41                    
+        C42C06C07C08C09C10C13C16C38C39C40J01J02J03  0  0  0                    
++         5  5  5  5  5  5  5  4  5  5  5  5  5  5  5  5  4                    
++         5  5  6  5  5  5  5  5  5  5  5  5  5  4  5  7  6                    
++         6  5  5  7  7  5  6  5  5  6  5  5  5  6  5  6  5                    
++         5  5  5  4  5  5  5  5  5  5  5  4  4  5  4  5  5                    
++         4  5  4  5  5  5  5  4  5  5  5  5  5  5  5  5  5                    
++         5  5  5  5  5  5  5  6  5  5  5  5  5  6  5  5  6                    
++         5  6  6  6  6  6  6  6  8  7  7  7  7  6  0  0  0                    
%c M  cc GPS ccc cccc cccc cccc cccc ccccc ccccc ccccc ccccc                    
%c cc cc ccc ccc cccc cccc cccc cccc ccccc ccccc ccccc ccccc                    
%f  0.0000000  0.000000000  0.00000000000  0.000000000000000                    
%f  0.0000000  0.000000000  0.00000000000  0.000000000000000                    
%i    0    0    0    0      0      0      0      0         0                    
%i    0    0    0    0      0      0      0      0         0                    
/* CCCCCCCCCCCCCCCCCCCCCCCCCCCCCCCCCCCCCCCCCCCCCCCCCCCCCCCCCCCCCCCCCCCCCCCCCCCCC
/* CCCCCCCCCCCCCCCCCCCCCCCCCCCCCCCCCCCCCCCCCCCCCCCCCCCCCCCCCCCCCCCCCCCCCCCCCCCCC
/* CCCCCCCCCCCCCCCCCCCCCCCCCCCCCCCCCCCCCCCCCCCCCCCCCCCCCCCCCCCCCCCCCCCCCCCCCCCCC
/* PCV:IGS14      OL/AL:EOT11A   NONE     YN ORB:CoN CLK:CoN                    
*  2021  7 26  6 55  0.00000000                                                 
PG13 -13056.978080  23032.977626   -652.571375    162.679533                    
PG28 -16248.524358    188.063855 -20423.321494    531.301106                    
PG21    980.459429 -15251.863080 -20972.515334    133.518473                    
PG22  -6050.749020 -21718.056931 -14019.497629   -554.201689                    
PG07 -21488.124466  -7789.488204  14301.900135    210.995305                    
PG05   1459.795140  20399.966697  16690.371053    -49.074230                    
PG20  -8830.449195  13164.918743  21297.699557    519.991521                    
PG31  24632.875553  -7579.387955   7265.375091   -130.728691                    
PG17 -16589.746980   3278.105868 -20055.517242    479.545425                    
PG15  -1765.326622  25414.370310  -7216.816954   -132.897490                    
PG16   5882.298802 -16155.339942  19865.715238   -363.214899                    
PG29   8656.481429  13706.487892  20976.031310   -386.181953                    
PG12   8943.654092  23849.896951  -8017.834324    -73.871935                    
PG19 -18322.515883  11510.071764 -15584.221022     31.236617                    
PG02 -16902.979945  14288.007580  15383.410799   -622.141802                    
PG25  17137.259845  20365.345568   1924.085623    180.080455                    
PG01  -7624.838922 -13685.574021 -21771.570572    616.869366                    
PG30 -26528.839540    434.721207   2968.635238   -455.075623                    
PG24   2821.431024  15651.986362 -21520.541632    187.702599                    
PG27  12159.488568 -23139.621703   3231.055811   -168.655596                    
PG06 -25054.799527   6869.914560   5724.572923     45.738420                    
PG09 -11340.991591 -11628.482234  20949.732739   -356.824384                    
PG03 -10931.434092 -23094.193464  -7552.316182   -232.452888                    
PG32  17201.502663  -6760.516639 -18895.147293     11.926280                    
PG26  14176.917387  -7157.825697  21254.463731    115.084894                    
PG08   5111.535334 -25030.962026  -6662.794376    -30.193528                    
PG10  19216.920732   5490.858230 -17513.374708   -169.565235                    
PG04  -2342.117493 -21196.293101  15801.535508   -203.036961                    
PG18  22987.616808   5935.626623  11975.766316    338.193198                    
PG23  19960.410432  15149.534342  -8921.178289     79.472259                    
PG14 -18960.569239  -5356.873568 -17837.711852     38.543238                    
PG11 -18631.969439  11649.300972  14899.919311     23.714663                    
PR09 -16874.001245   2522.687424 -18971.204089      4.821442                    
PR11  16111.166139  14414.780361 -13511.588316     45.083760                    
PR20 -22068.787074  12553.340489  -2653.146775    -53.095059                    
PR19 -16285.819432      1.630005 -19636.263173   -152.970590                    
PR13  17278.694018  -1869.998192  18659.330064    -58.281299                    
PR01  10989.956703  10097.109246 -20681.104674     82.847842                    
PR22   3687.206364   9965.332188  23172.953190   -124.592280                    
PR16 -23663.240403  -7622.633084  -5428.960458    -18.510813                    
PR08   6373.007877  22660.567642  -9797.769699    -60.111864                    
PR03   1599.731566 -24354.730707  -7280.255561     40.176002                    
PR07  -1349.939859  24597.866318   6742.402929    -41.907412                    
PR02   8845.473832 -12173.927462 -20537.139486    487.422736                    
PR17  12566.567435 -16624.134366 -14740.334674    444.292425                    
PR18  -2922.249783 -10501.073615 -23050.766927     84.712232                    
PR21 -11590.255171  16348.728682  15753.686290   -226.708163                    
PR05 -10719.953283  -8392.954637  21577.182924     75.997737                    
PR15 -16304.056045 -14679.377150  13044.319072    102.462055                    
PR12  23542.285291   8845.501715   4342.765848    248.385763                    
PR04  -6319.296107 -22657.493680   9888.250532     97.464043                    
PR24  21752.733929 -13204.647698   1920.986250     51.952195                    
PE11  -4859.782346  17543.789304  23326.653531   5667.549253                    
PE12 -23764.421568  14484.157290  10092.168766   5092.363313                    
PE19 -17089.120461   -929.057836  24159.123443    336.237569                    
PE18   -589.952946  21055.342368  11098.451254  -1658.927268                    
PE14  -3945.422616 -26182.518451 -18422.977955  -1513.284433                    
PE26 -16976.010428  -9913.140935 -22131.803438   1535.805668                    
PE24   4876.593407  22201.296324 -18974.557775  -1028.182116                    
PE30  13578.280733  -9922.500880  24356.629818   2753.722524                    
PE08  14545.408647 -21942.104728 -13544.915116   5964.368082                    
PE09  -3057.456067  29049.172019  -4729.225252   5587.771893                    
PE01 -23857.392797  -7775.790467 -15695.149601  -1158.063164                    
PE02  23835.147996   7649.204531  15809.225655    235.507223                    
PE07   3284.444442 -29072.102633   4551.134585   -566.148330                    
PE03  17598.521627  -1745.550129 -23737.203845   -456.742768                    
PE04 -14873.942560  21564.856955  13785.293123   -821.335396                    
PE05  10028.995729  19458.744809 -19916.769427   -262.260423                    
PE21 -21016.949974 -20798.631637   1412.443210   -678.358514                    
PE25  20919.255341  20878.859436  -1598.139244   -541.186924                    
PE27  -5859.777869 -22415.189800  18429.648715    -83.875236                    
PE31 -12616.754412  10840.499776 -24471.087441   -483.677166                    
PE36  16139.619949  10217.278784  22606.209387   -239.584757                    
PE13   5314.701253 -17553.082588 -23237.080548    419.491290                    
PE15  23695.870469 -14549.402788 -10151.081185    801.460901                    
PE33 -28080.450610   2982.201231  -8884.224564   -467.159360                    
PC11  20958.605656  -3484.063251  18172.462525    479.688635                    
PC12   8810.501411  12748.135464  23233.322763    800.277368                    
PC14  16962.828286   6523.680387 -21138.048093    773.690996                    
PC19 -15137.402228   4737.910280  22983.322538    922.955881                    
PC20 -16253.195357 -15014.428658  17038.134314   -835.015596                    
PC27   -331.330827 -19181.416188 -20284.489585    570.426749                    
PC28  16010.054661 -21883.104125  -6623.924867    -46.204906                    
PC22  -5243.274161  22396.967313  15778.063790   -948.763570                    
PC21   7619.968343  26825.641276   -534.869043   -937.033095                    
PC29 -22424.493878  12555.500658 -10883.795253    424.556710                    
PC30 -16232.587621  -5183.035346 -22111.856276    475.270482                    
PC23  10959.301950 -13306.539081  21957.162119   -965.973073                    
PC24  24689.730248  11439.094159  -6235.501308   -958.036572                    
PC26  10992.172885  16940.510949 -19276.777437    873.416015                    
PC25  25165.443557  -2458.735910  11826.586380   -880.181027                    
PC32  -7835.493080 -26786.000726    541.606613   -926.366112                    
PC33  15141.566559  -4776.759136 -22945.164803   -947.514790                    
PC35 -15504.969457  22366.047452   6232.307153   -169.706650                    
PC34  16733.623228   4521.358191  21852.457758   -619.638728                    
PC36 -25374.546311   1574.664137 -11478.035850   -736.348338                    
PC37  -9552.029354 -17250.517732  19764.907731   -863.069743                    
PC46 -25181.160341 -10780.219796   5260.058019    161.635891                    
PC45 -10727.276035  13276.743515 -22062.295210    503.443392                    
PC44    820.425260  19366.338961  20072.629866    308.450863                    
PC43  22519.277358 -11975.974591  11291.086445   -838.590249                    
PC41   5372.064311 -22232.071542 -15940.131947   -966.752287                    
PC42  16104.886656  15738.774402 -16428.926581   -923.810241                    
PC06 -22440.513956  34860.440113  -8559.381825    672.839240                    
PC07  -7627.011903  32600.677235 -24998.485280     80.604650                    
PC08 -15468.714447  17966.752770  34898.290964   -910.030659                    
PC09 -11393.924632  34325.847591 -21730.152151    345.343632                    
PC10   3059.834312  38397.700985 -16328.388978    -14.963646                    
PC13   -544.849606  22759.947717  35594.259880    350.340721                    
PC16 -20453.795544  35350.145771 -10812.384050   -896.550139                    
PC38 -14064.685956  20875.052547  33801.637457    164.190785                    
PC39 -17624.576269  36703.379493 -11240.850152     32.572012                    
PC40  -1294.535680  36903.822275 -20182.245099    184.100772                    
PJ01 -27159.052142  25668.121721  24476.181123   -424.141448                    
PJ02 -24484.909271  16202.938994 -25745.894104     -1.044629                    
PJ03 -27585.935777  31851.598345   4771.916489     -0.351379                    
EOF                                                                             
